JILIN-1 08              
1 43160U 18008F   26068.94297667  .00011349  00000+0  36689-3 0  9995
2 43160  97.1902  90.9961 0008132  76.0646 284.1500 15.32205976449749
NUSAT-48 (HENRIETTA LE*)
1 60498U 24149AG  26068.80506099  .00012988  00000+0  45212-3 0  9990
2 60498  97.3923 150.8264 0002753 263.3026  96.7901 15.29812597 86945
